INTELSAT 21 (IS-21)     
1 38749U 12045A   26157.83505159 -.00000271  00000+0  00000+0 0  9999
2 38749   0.0429  86.1869 0002055 357.0311  54.6632  1.00272840 50429
INTELSAT 23 (IS-23)     
1 38867U 12057A   26157.83600492 -.00000271  00000+0  00000+0 0  9999
2 38867   0.0119 327.6384 0000579 119.1696  56.3893  1.00276253 49858
FM-6                    
1 39360U 13058A   26157.68087418 -.00000004  00000+0  00000+0 0  9994
2 39360   0.0137  48.0496 0003586 117.6602 218.1964  1.00279606 45966
INTELSAT 30 (IS-30)     
1 40271U 14062A   26157.54249661 -.00000137  00000+0  00000+0 0  9995
2 40271   0.0228  41.3899 0001071 353.6432 320.1484  1.00267497  6685
DIRECTV 14              
1 40333U 14078B   26157.61289036 -.00000112  00000+0  00000+0 0  9992
2 40333   0.0096 339.5033 0000427 195.4322 201.4988  1.00270401 41939
DIRECTV 15              
1 40663U 15026A   26157.82603821 -.00000089  00000+0  00000+0 0  9990
2 40663   0.0176   0.7371 0000295 298.6741 150.3262  1.00269833 40360
SKY MEXICO-1            
1 40664U 15026B   26157.83089155 -.00000221  00000+0  00000+0 0  9998
2 40664   0.0141  44.0735 0002271  48.9235  22.5734  1.00272061 40358
INTELSAT 34 (IS-34)     
1 40874U 15039A   26157.83557159 -.00000272  00000+0  00000+0 0  9995
2 40874   0.0092 329.5798 0000379  35.2406 135.7488  1.00272854 39533
INTELSAT 31 (IS-31)     
1 41581U 16035A   26157.54249661 -.00000137  00000+0  00000+0 0  9992
2 41581   0.0191 260.1747 0000831 342.0363 113.0075  1.00269642 36570
INTELSAT 36 (IS-36)     
1 41747U 16053A   26157.83215492 -.00000011  00000+0  00000+0 0  9994
2 41747   0.0105 355.7243 0001594 342.4905 285.1040  1.00270843 35852
INTELSAT 32E (IS-32E)   
1 41945U 17007B   26157.76669031 -.00000255  00000+0  00000+0 0  9998
2 41945   0.0172 341.8200 0000524 359.0910 147.1037  1.00270909 34122
INTELSAT 35E (IS-35E)   
1 42818U 17041A   26157.83973160 -.00000224  00000+0  00000+0 0  9991
2 42818   0.0152  50.5053 0001881  24.0420  88.5299  1.00273203 32713
INTELSAT 37E (IS-37E)   
1 42950U 17059A   26157.84293829 -.00000127  00000+0  00000+0 0  9997
2 42950   0.0137  47.9219 0002548  44.5162  88.2899  1.00271615 31962
AZERSPACE 2 (IS-38)     
1 43632U 18074A   26156.94604939  .00000149  00000+0  00000+0 0  9994
2 43632   0.0175 331.2890 0001508 106.1415 202.6298  1.00271693 28335
HORIZONS-3E             
1 43633U 18074B   26157.74278890 -.00000017  00000+0  00000+0 0  9992
2 43633   0.0179 156.5816 0000853 119.5470  55.4301  1.00271679 28239
AT&T T-16               
1 44333U 19034A   26157.82647154 -.00000102  00000+0  00000+0 0  9994
2 44333   0.0217  62.7964 0000542 233.5749 155.5500  1.00270379 25532
INTELSAT 39 (IS-39)     
1 44476U 19049B   26157.63121132  .00000048  00000+0  00000+0 0  9998
2 44476   0.0173 316.2772 0000278 327.6995 260.2628  1.00266909 25022
GALAXY 30 (G-30)        
1 46114U 20056C   26157.75049200  .00000050  00000+0  00000+0 0  9990
2 46114   0.0179 349.6740 0002313  84.4288 326.2293  1.00272626 21186
GALAXY 33 (G-33)        
1 54026U 22128A   26157.74893199  .00000092  00000+0  00000+0 0  9992
2 54026   0.0227  50.5194 0001937  25.2878 315.9862  1.00272234 13634
GALAXY 34 (G-34)        
1 54027U 22128B   26156.96541106  .00000071  00000+0  00000+0 0  9991
2 54027   0.0081  33.4234 0002001  61.9178  17.6089  1.00274021 13803
GALAXY 31 (G-31)        
1 54243U 22153A   26157.68000750  .00000027  00000+0  00000+0 0  9995
2 54243   0.0235  83.5934 0001411 353.2314 302.0763  1.00272283  7025
GALAXY 32 (G-32)        
1 54244U 22153B   26157.40073403 -.00000161  00000+0  00000+0 0  9991
2 54244   0.0137  23.8026 0002346  13.8118 270.4767  1.00272104 13037
GALAXY 35 (G-35)        
1 54741U 22170A   26157.54292994 -.00000149  00000+0  00000+0 0  9991
2 54741   0.0132  56.5995 0002197  22.4697 278.2534  1.00272017 12786
GALAXY 36 (G-36)        
1 54742U 22170B   26157.54370994 -.00000172  00000+0  00000+0 0  9995
2 54742   0.0047 223.4787 0002779 219.0961 279.1320  1.00271658 12660
GALAXY 37 (G-37)        
1 57493U 23112A   26157.67879417  .00000062  00000+0  00000+0 0  9993
2 57493   0.0178 326.1670 0002104 109.9371 296.3618  1.00271537 10437
